EUTELSAT 33F            
1 29270U 06032A   26167.54885279  .00000153  00000+0  00000+0 0  9998
2 29270   1.6605  82.2499 0003682   0.9432  52.2947  1.00270001 47305
JCSAT-3A                
1 29272U 06033A   26167.59657154 -.00000347  00000+0  00000+0 0  9991
2 29272   0.0190 306.2947 0002095 151.7435 149.5865  1.00271786 47738
KOREASAT 5 (MUGUNGWHA 5)
1 29349U 06034A   26167.59418911 -.00000361  00000+0  00000+0 0  9999
2 29349   1.7843  82.9925 0001427  52.6246  96.2104  1.00269980 41312
DIRECTV 9S              
1 29494U 06043A   26167.59356065 -.00000117  00000+0  00000+0 0  9990
2 29494   2.4198  80.9082 0004869  12.4270 284.0125  1.00270807 51377
OPTUS D1                
1 29495U 06043B   26167.57238937 -.00000187  00000+0  00000+0 0  9993
2 29495   3.0338  79.6650 0003339 357.8094 185.4053  1.00271696 72114
BADR-4                  
1 29526U 06051A   26167.54911279  .00000153  00000+0  00000+0 0  9993
2 29526   2.0036  81.1271 0004715 354.9461  60.8554  1.00270601 51265
WILDBLUE-1              
1 29643U 06054A   26167.59156731 -.00000053  00000+0  00000+0 0  9995
2 29643   2.8021  80.4893 0001260   3.7877 282.3352  1.00270606 53782
SKYNET 5A               
1 30794U 07007B   26167.27593559 -.00000275  00000+0  00000+0 0  9997
2 30794   5.2983  73.7529 0004061  17.7121   7.6215  1.00269483 70691
ANIK F3                 
1 31102U 07009A   26167.59000730 -.00000003  00000+0  00000+0 0  9991
2 31102   1.1965  83.8531 0002429 359.9142 274.7518  1.00271931 46557
ASTRA 1L                
1 31306U 07016A   26167.46610789 -.00000186  00000+0  00000+0 0  9994
2 31306   1.3204  81.5826 0005133  11.2090 315.2661  1.00271247 44972
GALAXY 17 (G-17)        
1 31307U 07016B   26167.52539506 -.00000210  00000+0  00000+0 0  9997
2 31307   2.9709  79.9089 0004551  16.8842 272.1268  1.00272031 69794
INTELSAT 11 (IS-11)     
1 32253U 07044B   26167.56770936 -.00000256  00000+0  00000+0 0  9997
2 32253   3.5644  78.6765 0002318  90.7209  68.4046  0.99051084 68445
WGS F1 (USA 195)        
1 32258U 07046A   26167.46255454 -.00000269  00000+0  00000+0 0  9990
2 32258   0.0431  89.3118 0000178 306.2013 353.2358  1.00269419 52324
SKYNET 5B               
1 32294U 07056B   26167.47590126  .00000135  00000+0  00000+0 0  9991
2 32294   5.2504  73.5149 0003974   5.6612  21.9967  1.00274419 68196
ASTRA 4A                
1 32299U 07057A   26167.54313277  .00000031  00000+0  00000+0 0  9990
2 32299   0.0135   8.5066 0002106  79.9083  16.7161  1.00271454 51648
HORIZONS-2              
1 32388U 07063B   26167.52764840 -.00000256  00000+0  00000+0 0  9990
2 32388   2.6009  80.6329 0003732   1.8971 298.4127  1.00268618 67808
THURAYA-3               
1 32404U 08001A   26167.55751948 -.00000059  00000+0  00000+0 0  9991
2 32404   5.9886  35.8013 0001580 159.3940 346.9461  1.00007331 67489
THOR 5                  
1 32487U 08006A   26167.11433705 -.00000009  00000+0  00000+0 0  9992
2 32487   0.0189 267.0817 0002288 184.5883 213.1189  1.00270963 67301
AMC-14                  
1 32708U 08011A   26167.12751044 -.00000056  00000+0  00000+0 0  9996
2 32708  24.0031  20.5319 0045807   7.0862 347.9617  1.00354753 68154
DIRECTV 11              
1 32729U 08013A   26167.49072346 -.00000127  00000+0  00000+0 0  9991
2 32729   0.0097 257.2422 0000414 123.9435 321.0591  1.00272758 45586
ICO G1                  
1 32763U 08016A   26166.16572440 -.00000172  00000+0  00000+0 0  9995
2 32763   5.5332  36.1528 0002284  39.0948 155.0148  1.00272276 66525
VINASAT-1               
1 32767U 08018A   26167.60327435 -.00000330  00000+0  00000+0 0  9999
2 32767   0.0259 300.2237 0001142 156.2895 157.4860  1.00270134 66588
STAR ONE C2             
1 32768U 08018B   26167.52926603 -.00000279  00000+0  00000+0 0  9995
2 32768   1.2399  82.4661 0002510  12.6846 295.1750  1.00269129 66645
AMOS-3                  
1 32794U 08022A   26167.12205042  .00000143  00000+0  00000+0 0  9991
2 32794   0.4531  86.2296 0002072  73.4552 186.7529  1.00474864 82327
GALAXY 18 (G-18)        
1 32951U 08024A   26167.58922730  .00000023  00000+0  00000+0 0  9995
2 32951   0.0166  19.2810 0002707  66.2587 268.4380  1.00272192 45842
ZHONGXING-9             
1 33051U 08028A   26167.63189488 -.00000251  00000+0  00000+0 0  9996
2 33051   0.7670  85.3439 0003902 340.1981 159.2199  1.00269650 66036
SKYNET 5C               
1 33055U 08030A   26167.39619557 -.00000144  00000+0  00000+0 0  9992
2 33055   3.7874  77.0491 0003873  16.3261 296.1268  1.00271617 65948
TURKSAT 3A              
1 33056U 08030B   26167.55058612  .00000144  00000+0  00000+0 0  9999
2 33056   0.0555  79.4412 0005037 350.2163  75.3465  1.00270114 52357
INTELSAT 25 (IS-25)     
1 33153U 08034A   26167.59924707 -.00000234  00000+0  00000+0 0  9993
2 33153   2.7088  80.3790 0003276  60.4004 104.0870  0.99035053 65680
ECHOSTAR 11             
1 33207U 08035A   26167.28725256 -.00000059  00000+0  00000+0 0  9993
2 33207   1.0032  84.1849 0002437 338.1841 195.8167  1.00271546 51202
SUPERBIRD-C2            
1 33274U 08038A   26167.60488869 -.00000310  00000+0  00000+0 0  9992
2 33274   2.3600  81.2692 0005859  24.5396 152.8049  1.00273195105728
INMARSAT 4-F3           
1 33278U 08039A   26167.49072346 -.00000144  00000+0  00000+0 0  9998
2 33278   4.2926  31.6281 0002835  57.2492 254.5415  1.00271671 46535
