OBJECT_NAME,OBJECT_ID,EPOCH,MEAN_MOTION,ECCENTRICITY,INCLINATION,RA_OF_ASC_NODE,ARG_OF_PERICENTER,MEAN_ANOMALY,EPHEMERIS_TYPE,CLASSIFICATION_TYPE,NORAD_CAT_ID,ELEMENT_SET_NO,REV_AT_EPOCH,BSTAR,MEAN_MOTION_DOT,MEAN_MOTION_DDOT
EUTELSAT 33F,2006-032A,2026-06-16T13:10:20.881056,1.00270001,.00036828,1.6605,82.2499,0.9432,52.2947,0,U,29270,999,4730,0,.153E-5,0
JCSAT-3A,2006-033A,2026-06-16T14:19:03.781056,1.00271786,.00020956,0.0190,306.2947,151.7435,149.5865,0,U,29272,999,4773,0,-.347E-5,0
KOREASAT 5 (MUGUNGWHA 5),2006-034A,2026-06-16T14:15:37.939104,1.00269980,.00014278,1.7843,82.9925,52.6246,96.2104,0,U,29349,999,4131,0,-.361E-5,0
DIRECTV 9S,2006-043A,2026-06-16T14:14:43.640160,1.00270807,.00048695,2.4198,80.9082,12.4270,284.0125,0,U,29494,999,5137,0,-.117E-5,0
OPTUS D1,2006-043B,2026-06-16T13:44:14.441568,1.00271696,.00033395,3.0338,79.6650,357.8094,185.4053,0,U,29495,999,7211,0,-.187E-5,0
BADR-4,2006-051A,2026-06-16T13:10:43.345056,1.00270601,.00047154,2.0036,81.1271,354.9461,60.8554,0,U,29526,999,5126,0,.153E-5,0
WILDBLUE-1,2006-054A,2026-06-16T14:11:51.415584,1.00270606,.000126,2.8021,80.4893,3.7877,282.3352,0,U,29643,999,5378,0,-.53E-6,0
SKYNET 5A,2007-007B,2026-06-16T06:37:20.834976,1.00269483,.0004061,5.2983,73.7529,17.7121,7.6215,0,U,30794,999,7069,0,-.275E-5,0
ANIK F3,2007-009A,2026-06-16T14:09:36.630720,1.00271931,.00024296,1.1965,83.8531,359.9142,274.7518,0,U,31102,999,4655,0,-.3E-7,0
ASTRA 1L,2007-016A,2026-06-16T11:11:11.721696,1.00271247,.00051331,1.3204,81.5826,11.2090,315.2661,0,U,31306,999,4497,0,-.186E-5,0
GALAXY 17 (G-17),2007-016B,2026-06-16T12:36:34.133184,1.00272031,.00045518,2.9709,79.9089,16.8842,272.1268,0,U,31307,999,6979,0,-.21E-5,0
INTELSAT 11 (IS-11),2007-044B,2026-06-16T13:37:30.088704,0.99051084,.00023188,3.5644,78.6765,90.7209,68.4046,0,U,32253,999,6844,0,-.256E-5,0
WGS F1 (USA 195),2007-046A,2026-06-16T11:06:04.712256,1.00269419,.00001781,0.0431,89.3118,306.2013,353.2358,0,U,32258,999,5232,0,-.269E-5,0
SKYNET 5B,2007-056B,2026-06-16T11:25:17.868864,1.00274419,.00039747,5.2504,73.5149,5.6612,21.9967,0,U,32294,999,6819,0,.135E-5,0
ASTRA 4A,2007-057A,2026-06-16T13:02:06.671328,1.00271454,.00021063,0.0135,8.5066,79.9083,16.7161,0,U,32299,999,5164,0,.31E-6,0
HORIZONS-2,2007-063B,2026-06-16T12:39:48.821760,1.00268618,.00037326,2.6009,80.6329,1.8971,298.4127,0,U,32388,999,6780,0,-.256E-5,0
THURAYA-3,2008-001A,2026-06-16T13:22:49.683072,1.00007331,.00015801,5.9886,35.8013,159.3940,346.9461,0,U,32404,999,6748,0,-.59E-6,0
THOR 5,2008-006A,2026-06-16T02:44:38.721120,1.00270963,.00022881,0.0189,267.0817,184.5883,213.1189,0,U,32487,999,6730,0,-.9E-7,0
AMC-14,2008-011A,2026-06-16T03:03:36.902016,1.00354753,.00458074,24.0031,20.5319,7.0862,347.9617,0,U,32708,999,6815,0,-.56E-6,0
DIRECTV 11,2008-013A,2026-06-16T11:46:38.506944,1.00272758,.00004142,0.0097,257.2422,123.9435,321.0591,0,U,32729,999,4558,0,-.127E-5,0
ICO G1,2008-016A,2026-06-15T03:58:38.588160,1.00272276,.00022846,5.5332,36.1528,39.0948,155.0148,0,U,32763,999,6652,0,-.172E-5,0
VINASAT-1,2008-018A,2026-06-16T14:28:42.903840,1.00270134,.00011426,0.0259,300.2237,156.2895,157.4860,0,U,32767,999,6658,0,-.33E-5,0
STAR ONE C2,2008-018B,2026-06-16T12:42:08.584992,1.00269129,.00025109,1.2399,82.4661,12.6846,295.1750,0,U,32768,999,6664,0,-.279E-5,0
AMOS-3,2008-022A,2026-06-16T02:55:45.156288,1.00474864,.00020729,0.4531,86.2296,73.4552,186.7529,0,U,32794,999,8232,0,.143E-5,0
GALAXY 18 (G-18),2008-024A,2026-06-16T14:08:29.238720,1.00272192,.00027072,0.0166,19.2810,66.2587,268.4380,0,U,32951,999,4584,0,.23E-6,0
ZHONGXING-9,2008-028A,2026-06-16T15:09:55.717632,1.00269650,.00039029,0.7670,85.3439,340.1981,159.2199,0,U,33051,999,6603,0,-.251E-5,0
SKYNET 5C,2008-030A,2026-06-16T09:30:31.297248,1.00271617,.00038737,3.7874,77.0491,16.3261,296.1268,0,U,33055,999,6594,0,-.144E-5,0
TURKSAT 3A,2008-030B,2026-06-16T13:12:50.640768,1.00270114,.00050372,0.0555,79.4412,350.2163,75.3465,0,U,33056,999,5235,0,.144E-5,0
INTELSAT 25 (IS-25),2008-034A,2026-06-16T14:22:54.946848,0.99035053,.00032766,2.7088,80.3790,60.4004,104.0870,0,U,33153,999,6568,0,-.234E-5,0
ECHOSTAR 11,2008-035A,2026-06-16T06:53:38.621184,1.00271546,.00024375,1.0032,84.1849,338.1841,195.8167,0,U,33207,999,5120,0,-.59E-6,0
SUPERBIRD-C2,2008-038A,2026-06-16T14:31:02.382816,1.00273195,.00058592,2.3600,81.2692,24.5396,152.8049,0,U,33274,999,10572,0,-.31E-5,0
INMARSAT 4-F3,2008-039A,2026-06-16T11:46:38.506944,1.00271671,.00028356,4.2926,31.6281,57.2492,254.5415,0,U,33278,999,4653,0,-.144E-5,0
